[
    {
        "Altitude(m)": 704394.5661456645,
        "Argument of Periapsis(deg)": 0.007973084830638947,
        "Eccentricity": 0.0,
        "Inclination(deg)": 45.0,
        "Latitude(deg)": -5.9400910468205534,
        "Longitude(deg)": -166.47255126934547,
        "Mean Anomaly(deg)": -8.290348346763455,
        "RAAN(deg)": 299.99247364097926,
        "Satellite Name": "Constellation 1 1341",
        "Satellite Number": 1341,
        "Semi-Major Axis(m)": 7083131.272910544,
        "Time(s)": 133
    },
    {
        "Altitude(m)": 704386.2259341357,
        "Argument of Periapsis(deg)": 0.008033032836884352,
        "Eccentricity": 0.0,
        "Inclination(deg)": 45.0,
        "Latitude(deg)": -5.897120712979389,
        "Longitude(deg)": -166.43335547827155,
        "Mean Anomaly(deg)": -8.229647206513517,
        "RAAN(deg)": 299.99241705181373,
        "Satellite Name": "Constellation 1 1341",
        "Satellite Number": 1341,
        "Semi-Major Axis(m)": 7083131.272910544,
        "Time(s)": 134
    },
    {
        "Altitude(m)": 704377.9046377139,
        "Argument of Periapsis(deg)": 0.008092980843129758,
        "Eccentricity": 0.0,
        "Inclination(deg)": 45.0,
        "Latitude(deg)": -5.8541468651898985,
        "Longitude(deg)": -166.39416626459158,
        "Mean Anomaly(deg)": -8.168946066263683,
        "RAAN(deg)": 299.99236046264815,
        "Satellite Name": "Constellation 1 1341",
        "Satellite Number": 1341,
        "Semi-Major Axis(m)": 7083131.272910544,
        "Time(s)": 135
    },
    {
        "Altitude(m)": 704369.6022752966,
        "Argument of Periapsis(deg)": 0.008152928849375162,
        "Eccentricity": 0.0,
        "Inclination(deg)": 45.0,
        "Latitude(deg)": -5.811169529191982,
        "Longitude(deg)": -166.3549835790676,
        "Mean Anomaly(deg)": -8.108244926013745,
        "RAAN(deg)": 299.9923038734825,
        "Satellite Name": "Constellation 1 1341",
        "Satellite Number": 1341,
        "Semi-Major Axis(m)": 7083131.272910544,
        "Time(s)": 136
    },
    {
        "Altitude(m)": 704361.318865696,
        "Argument of Periapsis(deg)": 0.008212876855620568,
        "Eccentricity": 0.0,
        "Inclination(deg)": 45.0,
        "Latitude(deg)": -5.76818873071348,
        "Longitude(deg)": -166.31580737247558,
        "Mean Anomaly(deg)": -8.047543785763807,
        "RAAN(deg)": 299.992247284317,
        "Satellite Name": "Constellation 1 1341",
        "Satellite Number": 1341,
        "Semi-Major Axis(m)": 7083131.272910544,
        "Time(s)": 137
    },
    {
        "Altitude(m)": 704353.0544276222,
        "Argument of Periapsis(deg)": 0.008272824861865974,
        "Eccentricity": 0.0,
        "Inclination(deg)": 45.0,
        "Latitude(deg)": -5.725204495470313,
        "Longitude(deg)": -166.27663759560548,
        "Mean Anomaly(deg)": -7.986842645513971,
        "RAAN(deg)": 299.9921906951514,
        "Satellite Name": "Constellation 1 1341",
        "Satellite Number": 1341,
        "Semi-Major Axis(m)": 7083131.272910544,
        "Time(s)": 138
    },
    {
        "Altitude(m)": 704344.8089797159,
        "Argument of Periapsis(deg)": 0.00833277286811138,
        "Eccentricity": 0.0,
        "Inclination(deg)": 45.0,
        "Latitude(deg)": -5.682216849166249,
        "Longitude(deg)": -166.23747419926084,
        "Mean Anomaly(deg)": -7.926141505264085,
        "RAAN(deg)": 299.9921341059859,
        "Satellite Name": "Constellation 1 1341",
        "Satellite Number": 1341,
        "Semi-Major Axis(m)": 7083131.272910544,
        "Time(s)": 139
    },
    {
        "Altitude(m)": 704336.5825405112,
        "Argument of Periapsis(deg)": 0.008392720874356788,
        "Eccentricity": 0.0,
        "Inclination(deg)": 45.0,
        "Latitude(deg)": -5.639225817493205,
        "Longitude(deg)": -166.19831713425882,
        "Mean Anomaly(deg)": -7.865440365014147,
        "RAAN(deg)": 299.9920775168203,
        "Satellite Name": "Constellation 1 1341",
        "Satellite Number": 1341,
        "Semi-Major Axis(m)": 7083131.272910544,
        "Time(s)": 140
    },
    {
        "Altitude(m)": 704328.375128473,
        "Argument of Periapsis(deg)": 0.008452668880602192,
        "Eccentricity": 0.0,
        "Inclination(deg)": 45.0,
        "Latitude(deg)": -5.596231426131156,
        "Longitude(deg)": -166.15916651952733,
        "Mean Anomaly(deg)": -7.8047392247642104,
        "RAAN(deg)": 299.9920209276547,
        "Satellite Name": "Constellation 1 1341",
        "Satellite Number": 1341,
        "Semi-Major Axis(m)": 7083131.272910544,
        "Time(s)": 141
    },
    {
        "Altitude(m)": 704320.1867619529,
        "Argument of Periapsis(deg)": 0.008512616886847598,
        "Eccentricity": 0.0,
        "Inclination(deg)": 45.0,
        "Latitude(deg)": -5.55323370074937,
        "Longitude(deg)": -166.12002196971656,
        "Mean Anomaly(deg)": -7.744038084514426,
        "RAAN(deg)": 299.99196433848914,
        "Satellite Name": "Constellation 1 1341",
        "Satellite Number": 1341,
        "Semi-Major Axis(m)": 7083131.272910544,
        "Time(s)": 142
    },
    {
        "Altitude(m)": 704312.0174592324,
        "Argument of Periapsis(deg)": 0.008572564893093004,
        "Eccentricity": 0.0,
        "Inclination(deg)": 45.0,
        "Latitude(deg)": -5.510232667004283,
        "Longitude(deg)": -166.08088360378088,
        "Mean Anomaly(deg)": -7.683336944264438,
        "RAAN(deg)": 299.99190774932356,
        "Satellite Name": "Constellation 1 1341",
        "Satellite Number": 1341,
        "Semi-Major Axis(m)": 7083131.272910544,
        "Time(s)": 143
    },
    {
        "Altitude(m)": 704303.8672385023,
        "Argument of Periapsis(deg)": 0.008632512899338408,
        "Eccentricity": 0.0,
        "Inclination(deg)": 45.0,
        "Latitude(deg)": -5.467228350541474,
        "Longitude(deg)": -166.04175137259122,
        "Mean Anomaly(deg)": -7.6226358040145,
        "RAAN(deg)": 299.99185116015803,
        "Satellite Name": "Constellation 1 1341",
        "Satellite Number": 1341,
        "Semi-Major Axis(m)": 7083131.272910544,
        "Time(s)": 144
    },
    {
        "Altitude(m)": 704295.7361178548,
        "Argument of Periapsis(deg)": 0.008692460905583814,
        "Eccentricity": 0.0,
        "Inclination(deg)": 45.0,
        "Latitude(deg)": -5.424220776995098,
        "Longitude(deg)": -166.00262522703147,
        "Mean Anomaly(deg)": -7.561934663764665,
        "RAAN(deg)": 299.99179457099245,
        "Satellite Name": "Constellation 1 1341",
        "Satellite Number": 1341,
        "Semi-Major Axis(m)": 7083131.272910544,
        "Time(s)": 145
    },
    {
        "Altitude(m)": 704287.6241152985,
        "Argument of Periapsis(deg)": 0.00875240891182922,
        "Eccentricity": 0.0,
        "Inclination(deg)": 45.0,
        "Latitude(deg)": -5.381209971987857,
        "Longitude(deg)": -165.9635051179986,
        "Mean Anomaly(deg)": -7.501233523514778,
        "RAAN(deg)": 299.9917379818269,
        "Satellite Name": "Constellation 1 1341",
        "Satellite Number": 1341,
        "Semi-Major Axis(m)": 7083131.272910544,
        "Time(s)": 146
    },
    {
        "Altitude(m)": 704279.5312487611,
        "Argument of Periapsis(deg)": 0.008812356918074627,
        "Eccentricity": 0.0,
        "Inclination(deg)": 45.0,
        "Latitude(deg)": -5.338195961131295,
        "Longitude(deg)": -165.92439099640248,
        "Mean Anomaly(deg)": -7.440532383264892,
        "RAAN(deg)": 299.9916813926613,
        "Satellite Name": "Constellation 1 1341",
        "Satellite Number": 1341,
        "Semi-Major Axis(m)": 7083131.272910544,
        "Time(s)": 147
    },
    {
        "Altitude(m)": 704271.4575360655,
        "Argument of Periapsis(deg)": 0.008872304924320031,
        "Eccentricity": 0.0,
        "Inclination(deg)": 45.0,
        "Latitude(deg)": -5.295178770025564,
        "Longitude(deg)": -165.88528298126286,
        "Mean Anomaly(deg)": -7.379831243014954,
        "RAAN(deg)": 299.9916248034957,
        "Satellite Name": "Constellation 1 1341",
        "Satellite Number": 1341,
        "Semi-Major Axis(m)": 7083131.272910544,
        "Time(s)": 148
    },
    {
        "Altitude(m)": 704263.402994955,
        "Argument of Periapsis(deg)": 0.008932252930565437,
        "Eccentricity": 0.0,
        "Inclination(deg)": 45.0,
        "Latitude(deg)": -5.25215842426083,
        "Longitude(deg)": -165.8461806873211,
        "Mean Anomaly(deg)": -7.319130102765119,
        "RAAN(deg)": 299.99156821433013,
        "Satellite Name": "Constellation 1 1341",
        "Satellite Number": 1341,
        "Semi-Major Axis(m)": 7083131.272910544,
        "Time(s)": 149
    },
    {
        "Altitude(m)": 704255.3676430804,
        "Argument of Periapsis(deg)": 0.008992200936810843,
        "Eccentricity": 0.0,
        "Inclination(deg)": 45.0,
        "Latitude(deg)": -5.20913494941516,
        "Longitude(deg)": -165.8070842336223,
        "Mean Anomaly(deg)": -7.25842896251513,
        "RAAN(deg)": 299.9915116251646,
        "Satellite Name": "Constellation 1 1341",
        "Satellite Number": 1341,
        "Semi-Major Axis(m)": 7083131.272910544,
        "Time(s)": 150
    },
    {
        "Altitude(m)": 704247.3514980057,
        "Argument of Periapsis(deg)": 0.009052148943056249,
        "Eccentricity": 0.0,
        "Inclination(deg)": 45.0,
        "Latitude(deg)": -5.166108371056384,
        "Longitude(deg)": -165.76799357112714,
        "Mean Anomaly(deg)": -7.197727822265295,
        "RAAN(deg)": 299.991455035999,
        "Satellite Name": "Constellation 1 1341",
        "Satellite Number": 1341,
        "Semi-Major Axis(m)": 7083131.272910544,
        "Time(s)": 151
    }
]